NORAD_CAT_ID,OBJECT_NAME,OBJECT_TYPE,EPOCH,MEAN_MOTION,ECCENTRICITY,INCLINATION,RA_OF_ASC_NODE,ARG_OF_PERICENTER,MEAN_ANOMALY,BSTAR,MEAN_MOTION_DOT,MEAN_MOTION_DDOT,TLE_LINE0,TLE_LINE1,TLE_LINE2,SEMIMAJOR_AXIS,PERIOD,APOGEE,PERIGEE,DECAYED
53775.0,STARLINK-4722,PAYLOAD,2024-05-04 05:43:29,15.08827711,0.0001294,53.2163,62.0869,69.6585,290.4546,-7.8113e-05,-1.53e-05,0.0,0 STARLINK-4722,1 53775U 22111C   24125.23853561 -.00001530  00000-0 -78113-4 0  9996,2 53775  53.2163  62.0869 0001294  69.6585 290.4546 15.08827711 91061,6917.918,95.438,540.678,538.888,0.0
53775.0,STARLINK-4722,PAYLOAD,2024-05-05 02:23:30,15.08835628,0.0001131,53.2171,58.2191,73.8012,286.3105,0.00014288,1.987e-05,0.0,0 STARLINK-4722,1 53775U 22111C   24126.09965751  .00001987  00000-0  14288-3 0  9992,2 53775  53.2171  58.2191 0001131  73.8012 286.3105 15.08835628 91192,6917.894,95.438,540.541,538.976,0.0
53775.0,STARLINK-4722,PAYLOAD,2024-05-06 00:38:54,15.0885024,0.0001242,53.2177,54.0559,72.0176,288.0951,0.0005385,8.295e-05,0.0,0 STARLINK-4722,1 53775U 22111C   24127.02701472  .00008295  00000-0  53850-3 0  9991,2 53775  53.2177  54.0559 0001242  72.0176 288.0951 15.08850240 91336,6917.849,95.437,540.573,538.855,0.0
53775.0,STARLINK-4722,PAYLOAD,2024-05-06 22:54:17,15.08856437,0.0001315,53.2172,49.89,68.2694,291.8438,0.00016869,2.399e-05,0.0,0 STARLINK-4722,1 53775U 22111C   24127.95436535  .00002399  00000-0  16869-3 0  9996,2 53775  53.2172  49.8900 0001315  68.2694 291.8438 15.08856437 92287,6917.83,95.437,540.605,538.785,0.0
53775.0,STARLINK-4722,PAYLOAD,2024-05-07 02:05:03,15.08854922,0.0001124,53.2158,49.2963,68.1919,291.9193,1.6528e-05,-2.5e-07,0.0,0 STARLINK-4722,1 53775U 22111C   24128.08684421 -.00000025  00000-0  16528-4 0  9998,2 53775  53.2158  49.2963 0001124  68.1919 291.9193 15.08854922 91499,6917.835,95.437,540.477,538.922,0.0
53775.0,STARLINK-4722,PAYLOAD,2024-05-07 11:37:21,15.0885939,0.0001126,53.2188,47.5131,72.3017,287.8098,0.00015756,2.222e-05,0.0,0 STARLINK-4722,1 53775U 22111C   24128.48427807  .00002222  00000-0  15756-3 0  9996,2 53775  53.2188  47.5131 0001126  72.3017 287.8098 15.08859390 92367,6917.821,95.436,540.465,538.907,0.0
53775.0,STARLINK-4722,PAYLOAD,2024-05-08 01:55:51,15.08831426,0.0001319,53.2179,44.8379,83.5425,276.5717,-0.0002182,-3.758e-05,0.0,0 STARLINK-4722,1 53775U 22111C   24129.08045348 -.00003758  00000-0 -21820-3 0  9995,2 53775  53.2179  44.8379 0001319  83.5425 276.5717 15.08831426 91645,6917.907,95.438,540.684,538.859,0.0
53775.0,STARLINK-4722,PAYLOAD,2024-05-08 11:28:09,15.08848787,0.0001418,53.22,43.0532,94.8619,265.2535,6.393e-05,7.3e-06,0.0,0 STARLINK-4722,1 53775U 22111C   24129.47788785  .00000730  00000-0  63930-4 0  9991,2 53775  53.2200  43.0532 0001418  94.8619 265.2535 15.08848787 91700,6917.854,95.437,540.699,538.738,0.0
53775.0,STARLINK-4722,PAYLOAD,2024-05-08 22:35:52,15.088326,0.0001223,53.217,40.9712,89.9992,270.114,-7.1425e-06,-4.01e-06,0.0,0 STARLINK-4722,1 53775U 22111C   24129.94157412 -.00000401  00000-0 -71425-5 0  9996,2 53775  53.2170  40.9712 0001223  89.9992 270.1140 15.08832600 92586,6917.903,95.438,540.614,538.922,0.0
53775.0,STARLINK-4722,PAYLOAD,2024-05-09 03:22:01,15.08842453,0.0001403,53.2179,40.08,91.7234,268.3919,0.00016259,2.301e-05,0.0,0 STARLINK-4722,1 53775U 22111C   24130.14029214  .00002301  00000-0  16259-3 0  9999,2 53775  53.2179  40.0800 0001403  91.7234 268.3919 15.08842453 91808,6917.873,95.437,540.708,538.767,0.0
53775.0,STARLINK-4722,PAYLOAD,2024-05-09 11:18:56,15.08854579,0.0001215,53.2186,38.5924,86.8509,273.2622,0.00030335,4.545e-05,0.0,0 STARLINK-4722,1 53775U 22111C   24130.47148434  .00004545  00000-0  30335-3 0  9994,2 53775  53.2186  38.5924 0001215  86.8509 273.2622 15.08854579 91859,6917.836,95.437,540.541,538.86,0.0
53775.0,STARLINK-4722,PAYLOAD,2024-05-09 22:26:39,15.08836108,0.0001404,53.2185,36.5127,82.4037,277.7115,0.00026236,3.89e-05,0.0,0 STARLINK-4722,1 53775U 22111C   24130.93517745  .00003890  00000-0  26236-3 0  9997,2 53775  53.2185  36.5127 0001404  82.4037 277.7115 15.08836108 92731,6917.892,95.438,540.729,538.786,0.0
53775.0,STARLINK-4722,PAYLOAD,2024-05-10 03:12:48,15.08844453,0.0001365,53.2183,35.6162,102.3558,257.7587,0.00025539,3.779e-05,0.0,0 STARLINK-4722,1 53775U 22111C   24131.13389254  .00003779  00000-0  25539-3 0  9993,2 53775  53.2183  35.6162 0001365 102.3558 257.7587 15.08844453 91950,6917.867,95.437,540.676,538.787,0.0
53775.0,STARLINK-4722,PAYLOAD,2024-05-10 11:09:43,15.08856126,0.0001444,53.2193,34.132,88.9241,271.1916,0.00042684,6.515e-05,0.0,0 STARLINK-4722,1 53775U 22111C   24131.46508735  .00006515  00000-0  42684-3 0  9997,2 53775  53.2193  34.1320 0001444  88.9241 271.1916 15.08856126 92819,6917.831,95.437,540.695,538.697,0.0
53775.0,STARLINK-4722,PAYLOAD,2024-05-10 22:17:25,15.08847881,0.0001736,53.2188,32.0499,106.3217,253.7966,0.00038638,5.868e-05,0.0,0 STARLINK-4722,1 53775U 22111C   24131.92877239  .00005868  00000-0  38638-3 0  9990,2 53775  53.2188  32.0499 0001736 106.3217 253.7966 15.08847881 92885,6917.856,95.437,540.922,538.52,0.0
53775.0,STARLINK-4722,PAYLOAD,2024-05-11 03:03:34,15.08870745,0.000189,53.2179,31.1571,140.4988,219.6142,0.001615,0.0002553,0.0,0 STARLINK-4722,1 53775U 22111C   24132.12748440  .00025530  00000-0  16150-2 0  9996,2 53775  53.2179  31.1571 0001890 140.4988 219.6142 15.08870745 92108,6917.786,95.436,540.959,538.344,0.0
53775.0,STARLINK-4722,PAYLOAD,2024-05-11 20:32:45,15.08903521,0.0002427,53.2196,27.8874,346.8432,13.2496,6.1149e-05,6.87e-06,0.0,0 STARLINK-4722,1 53775U 22111C   24132.85608297  .00000687  00000-0  61149-4 0  9997,2 53775  53.2196  27.8874 0002427 346.8432  13.2496 15.08903521 92219,6917.686,95.434,541.23,537.872,0.0
53775.0,STARLINK-4722,PAYLOAD,2024-05-11 22:08:09,15.08815016,0.00024,53.2193,27.5903,112.4656,247.659,-0.0066673,-0.00104793,0.0,0 STARLINK-4722,1 53775U 22111C   24132.92233572 -.00104793  00000-0 -66673-2 0  9995,2 53775  53.2193  27.5903 0002400 112.4656 247.6590 15.08815016 93032,6917.957,95.439,541.482,538.161,0.0
53775.0,STARLINK-4722,PAYLOAD,2024-05-12 02:54:20,15.08781777,0.0001439,53.2183,26.6994,94.4564,265.6593,-0.0054947,-0.00086548,0.0,0 STARLINK-4722,1 53775U 22111C   24133.12106733 -.00086548  00000-0 -54947-2 0  9994,2 53775  53.2183  26.6994 0001439  94.4564 265.6593 15.08781777 92251,6918.058,95.441,540.919,538.928,0.0
53775.0,STARLINK-4722,PAYLOAD,2024-05-12 20:23:39,15.08739371,0.000142,53.2176,23.4278,89.8782,270.2373,0.0018017,0.00028423,0.0,0 STARLINK-4722,1 53775U 22111C   24133.84976605  .00028423  00000-0  18017-2 0  9990,2 53775  53.2176  23.4278 0001420  89.8782 270.2373 15.08739371 92366,6918.188,95.444,541.035,539.071,0.0
53775.0,STARLINK-4722,PAYLOAD,2024-05-12 21:59:02,15.08830126,0.0001155,53.218,23.1284,108.8195,251.2922,0.0017747,0.00028062,0.0,0 STARLINK-4722,1 53775U 22111C   24133.91600585  .00028062  00000-0  17747-2 0  9997,2 53775  53.2180  23.1284 0001155 108.8195 251.2922 15.08830126 93180,6917.911,95.438,540.575,538.977,0.0
53775.0,STARLINK-4722,PAYLOAD,2024-05-13 02:45:12,15.08835342,0.000105,53.217,22.2381,73.4633,286.6474,0.0011893,0.00018688,0.0,0 STARLINK-4722,1 53775U 22111C   24134.11472793  .00018688  00000-0  11893-2 0  9997,2 53775  53.2170  22.2381 0001050  73.4633 286.6474 15.08835342 92408,6917.895,95.438,540.486,539.033,0.0
53775.0,STARLINK-4722,PAYLOAD,2024-05-13 09:06:44,15.08851558,0.0001066,53.2177,21.0495,76.5923,283.5188,0.0015189,0.00023976,0.0,0 STARLINK-4722,1 53775U 22111C   24134.37968655  .00023976  00000-0  15189-2 0  9990,2 53775  53.2177  21.0495 0001066  76.5923 283.5188 15.08851558 93250,6917.845,95.437,540.448,538.973,0.0
53775.0,STARLINK-4722,PAYLOAD,2024-05-14 08:57:30,15.0889156,0.0001003,53.2177,16.5892,77.2848,282.8257,0.0011816,0.00018594,0.0,0 STARLINK-4722,1 53775U 22111C   24135.37326412  .00018594  00000-0  11816-2 0  9993,2 53775  53.2177  16.5892 0001003  77.2848 282.8257 15.08891560 93408,6917.723,95.434,540.282,538.894,0.0
53775.0,STARLINK-4722,PAYLOAD,2024-05-14 21:40:35,15.08851673,0.0001443,53.2173,14.2107,77.3108,282.8045,0.0012717,0.00020015,0.0,0 STARLINK-4722,1 53775U 22111C   24135.90318451  .00020015  00000-0  12717-2 0  9998,2 53775  53.2173  14.2107 0001443  77.3108 282.8045 15.08851673 93480,6917.845,95.437,540.708,538.711,0.0
53775.0,STARLINK-4722,PAYLOAD,2024-05-15 00:51:21,15.08866925,0.0001601,53.2186,13.6166,82.6194,277.498,0.0015244,0.00024074,0.0,0 STARLINK-4722,1 53775U 22111C   24136.03566211  .00024074  00000-0  15244-2 0  9999,2 53775  53.2186  13.6166 0001601  82.6194 277.4980 15.08866925 92698,6917.798,95.436,540.771,538.556,0.0
53775.0,STARLINK-4722,PAYLOAD,2024-05-15 15:09:49,15.08829703,0.0002166,53.2172,10.9364,85.0968,275.0271,-0.0011341,-0.00018288,0.0,0 STARLINK-4722,1 53775U 22111C   24136.63182249 -.00018288  00000-0 -11341-2 0  9996,2 53775  53.2172  10.9364 0002166  85.0968 275.0271 15.08829703 93596,6917.912,95.438,541.275,538.278,0.0
53775.0,STARLINK-4722,PAYLOAD,2024-05-15 21:31:21,15.08845952,0.000158,53.2184,9.7508,96.1227,263.9945,0.00027998,4.171e-05,0.0,0 STARLINK-4722,1 53775U 22111C   24136.89678074  .00004171  00000-0  27998-3 0  9990,2 53775  53.2184   9.7508 0001580  96.1227 263.9945 15.08845952 92828,6917.862,95.437,540.82,538.634,0.0
53775.0,STARLINK-4722,PAYLOAD,2024-05-16 08:39:03,15.0887259,0.0001304,53.218,7.6678,79.9188,280.1951,0.0022043,0.00034999,0.0,0 STARLINK-4722,1 53775U 22111C   24137.36045709  .00034999  00000-0  22043-2 0  9992,2 53775  53.2180   7.6678 0001304  79.9188 280.1951 15.08872590 92891,6917.781,95.435,540.548,538.744,0.0
53775.0,STARLINK-4722,PAYLOAD,2024-05-16 21:22:08,15.08842986,4.47e-05,53.2183,5.2892,109.6295,250.4745,0.0010555,0.00016552,0.0,0 STARLINK-4722,1 53775U 22111C   24137.89037727  .00016552  00000-0  10555-2 0  9991,2 53775  53.2183   5.2892 0000447 109.6295 250.4745 15.08842986 93789,6917.871,95.437,540.045,539.427,0.0
